[{"OBJECT_NAME":"STARLINK-31232","OBJECT_ID":"2024-017F","EPOCH":"2026-03-09T15:37:30.434880","MEAN_MOTION":15.30187107,"ECCENTRICITY":0.00011808,"INCLINATION":53.1603,"RA_OF_ASC_NODE":204.2623,"ARG_OF_PERICENTER":50.642,"MEAN_ANOMALY":309.4685,"EPHEMERIS_TYPE":0,"CLASSIFICATION_TYPE":"U","NORAD_CAT_ID":58831,"ELEMENT_SET_NO":999,"REV_AT_EPOCH":12005,"BSTAR":2.1441089e-5,"MEAN_MOTION_DOT":2.76e-6,"MEAN_MOTION_DDOT":0},{"OBJECT_NAME":"JINJUSAT-1B","OBJECT_ID":"2025-052A","EPOCH":"2026-03-09T15:55:38.242848","MEAN_MOTION":15.30194857,"ECCENTRICITY":0.00055504,"INCLINATION":97.4113,"RA_OF_ASC_NODE":325.4613,"ARG_OF_PERICENTER":82.193,"MEAN_ANOMALY":277.9941,"EPHEMERIS_TYPE":0,"CLASSIFICATION_TYPE":"U","NORAD_CAT_ID":63210,"ELEMENT_SET_NO":999,"REV_AT_EPOCH":5486,"BSTAR":0.00068430401,"MEAN_MOTION_DOT":0.00019955,"MEAN_MOTION_DDOT":0}]
